[{"OBJECT_NAME":"STARLINK-11527 [DTC]","OBJECT_ID":"2025-004N","EPOCH":"2026-03-09T09:16:30.137952","MEAN_MOTION":15.70846025,"ECCENTRICITY":0.00012345,"INCLINATION":43.0006,"RA_OF_ASC_NODE":72.301,"ARG_OF_PERICENTER":252.3764,"MEAN_ANOMALY":107.6969,"EPHEMERIS_TYPE":0,"CLASSIFICATION_TYPE":"U","NORAD_CAT_ID":62523,"ELEMENT_SET_NO":999,"REV_AT_EPOCH":6716,"BSTAR":0.00024970468,"MEAN_MOTION_DOT":0.00031722,"MEAN_MOTION_DDOT":0},{"OBJECT_NAME":"FLOCK 4BE-10","OBJECT_ID":"2024-149AM","EPOCH":"2026-03-09T23:11:04.477920","MEAN_MOTION":15.73804605,"ECCENTRICITY":0.00059918,"INCLINATION":97.3736,"RA_OF_ASC_NODE":155.157,"ARG_OF_PERICENTER":229.3829,"MEAN_ANOMALY":130.6914,"EPHEMERIS_TYPE":0,"CLASSIFICATION_TYPE":"U","NORAD_CAT_ID":60503,"ELEMENT_SET_NO":999,"REV_AT_EPOCH":8723,"BSTAR":0.0018232079,"MEAN_MOTION_DOT":0.00264399,"MEAN_MOTION_DDOT":0}]
